JCAT , SatcatLaunch_Tag Piece     , Type     , Name                        , PLName                      , LDate      , Parent      , SDate              , Primary, DDate              , Status Dest   , Owner       , State , Manufacturer, Bus              , Motor       , Mass     , DryMass   , TotMass  , Length, Diamete, Span   , Shape                    , ODate      , Perigee, Apogee, Inc   , OpOrbitOQU AltNames, STATUS, OBJECT_NAME             , OBJECT_ID , EPOCH                     , MEAN_MOTION, ECCENTRICITY, INCLINATION, RA_OF_ASC_NODE, ARG_OF_PERICENTER, MEAN_ANOMALY, EPHEMERIS_TYPE, CLASSIFICATION_TYPE, NORAD_CAT_ID, ELEMENT_SET_NO, REV_AT_EPOCH, BSTAR         , MEAN_MOTION_DOT, MEAN_MOTION_DDOT, LAST_UPDATED       , DATA_SOURCE               , TLE_LINE1                                                            , TLE_LINE2                                                            , N2YO_SAT_NAME              , TLE_FETCHED
  900, 00900 1964-063   1964-063C , P        , Dragsphere 1                , Dragsphere                  , 1964 Oct  6, S00901      , 1964 Oct  7 1100?  , Earth  , -                  , O      -      , NRL         , US    , NRL         , """NRL 14""""""" , -           , 1        , 1         , 1        , 0.4   , 0.4    , 0.4    , Sphere                   , 1964 Nov 11, 1053   , 1081  , 89.92 , LEO/P  -           , ACTIVE, CALSPHERE 1             , 1964-063C , 2025-10-03T09:43:17.482080, 13.76225239, 0.00248142  ,     90.2161,        65.8288,          353.629 ,      59.3958,            0.0, U                  ,        900.0,          999.0,       3610.0, 0.0014054007  , 1.381e-05      , 0.0             , 2025-10-04 23:19:22, planet4589.org + Celestrak, 1 00900U 64063C   25276.40506345  .00001381  00000-0  14054-2 0  9996, 2 00900  90.2161  65.8288 0024814 353.6290  59.3958 13.76225239 36103, CALSPHERE 1                , YES
  902, 00902 1964-063   1964-063E , P        , Dragsphere 2                , Dragsphere                  , 1964 Oct  6, S00901      , 1964 Oct  7 1100?  , Earth  , -                  , O      -      , NRL         , US    , NRL         , """NRL 14""""""" , -           , 10       , 10        , 10       , 0.4   , 0.4    , 0.4    , Sphere                   , 1964 Nov  9, 1058   , 1079  , 89.92 , LEO/P  -           , ACTIVE, CALSPHERE 2             , 1964-063E , 2025-10-03T11:08:16.378944, 13.52873858, 0.00167051  ,     90.2288,        69.7352,          250.7058,     171.8095,            0.0, U                  ,        902.0,          999.0,      82155.0, 0.00014924369 , 1.08e-06       , 0.0             , 2025-10-04 23:19:22, planet4589.org + Celestrak, 1 00902U 64063E   25276.46407846  .00000108  00000-0  14924-3 0  9993, 2 00902  90.2288  69.7352 0016705 250.7058 171.8095 13.52873858821552, CALSPHERE 2                , YES
 1361, 01361 1965-034   1965-034C , P        , LCS 1                       , LCS 1                       , 1965 May  6, A00686      , 1965 May  6 1920?  , Earth  , -                  , O      -      , AFSSD/MITLL , US    , ROHR/MITLL  , LCS              , -           , 34       , 34        , 34       , 1.1   , 1.1    , 1.1    , Sphere                   , 1965 Jul 12, 2776   , 2800  , 32.13 , MEO    -           , ACTIVE, LCS 1                   , 1965-034C , 2025-10-03T14:05:15.872064,  9.8930929 , 0.00135868  ,     32.1421,        66.2757,          293.648 ,      66.2591,            0.0, U                  ,       1361.0,          999.0,      18447.0, -0.00053862475, 4e-08          , 0.0             , 2025-10-04 23:19:22, planet4589.org + Celestrak, 1 01361U 65034C   25277.49579144  .00000003  00000-0 -75393-3 0  9999, 2 01361  32.1423  64.1179 0013588 296.8278  63.0830  9.89309269184562, LCS 1                      , YES
 1512, 01512 1965-065   1965-065E , P        , Tempsat 1                   , NRL PL157                   , 1965 Aug 13, S01508      , 1965 Aug 13 2251?  , Earth  , -                  , O      -      , NRL         , US    , NRL         , """NRL 14""""""" , -           , 9        , 9         , 9        , 0.4   , 0.4    , 0.4    , Sphere                   , 1966 Jan 22, 1085   , 1193  , 90.02 , LEO/P  -           , ACTIVE, TEMPSAT 1               , 1965-065E , 2025-10-03T13:27:00.093600, 13.33573664, 0.00676908  ,     89.9868,       212.7325,          248.916 ,     291.6047,            0.0, U                  ,       1512.0,          999.0,      92584.0, 0.00013168741 , 7.4e-07        , 0.0             , 2025-10-04 23:19:22, planet4589.org + Celestrak, 1 01512U 65065E   25276.56041775  .00000074  00000-0  13169-3 0  9992, 2 01512  89.9868 212.7325 0067691 248.9160 291.6047 13.33573664925848, TEMPSAT 1                  , YES
 1520, 01520 1965-065   1965-065H , P        , Calsphere                   , NRL PL158?                  , 1965 Aug 13, S01508      , 1965 Aug 13 2251?  , Earth  , -                  , O      -      , NRL         , US    , NRL         , """NRL 14""""""" , -           , 4        , 4         , 4        , 0.4   , 0.4    , 0.4    , Sphere                   , 1966 Jan  3, 1083   , 1195  , 90.04 , LEO/P  -           , ACTIVE, CALSPHERE 4A            , 1965-065H , 2025-10-03T12:42:46.307232, 13.36220273, 0.00711991  ,     89.9112,       124.8586,          107.3684,     286.1756,            0.0, U                  ,       1520.0,          999.0,      92843.0, 0.00034147091 , 1.88e-06       , 0.0             , 2025-10-04 23:19:22, planet4589.org + Celestrak, 1 01520U 65065H   25277.43712147  .00000172  00000-0  31050-3 0  9994, 2 01520  89.9110 124.8508 0071228 104.8723 331.1524 13.36220525928558, CALSPHERE 4(A)             , YES
 2826, 02826 1967-053   1967-053A , P        , Calsphere IV                , NRL PL160                   , 1967 May 31, S02825      , 1967 May 31 1026?  , Earth  , -                  , O      -      , NRL         , US    , NRL         , """NRL 14""""?""", -           , 5        , 5         , 5        , 0.5   , 0.5    , 0.5    , Sphere                   , 1967 Jul 24, 913    , 936   , 69.97 , LEO/I  -           , ACTIVE, OPS 5712 (P/L 160)      , 1967-053A , 2025-10-03T13:43:33.779136, 14.72402939, 0.00041131  ,     69.9194,       304.941 ,          329.3553,      30.7351,            0.0, U                  ,       2826.0,          999.0,       2838.0, 0.0023859348  , 0.00015098     , 0.0             , 2025-10-04 23:19:22, planet4589.org + Celestrak, 1 02826U 67053A   25277.52299956  .00012664  00000-0  20027-2 0  9991, 2 02826  69.9190 302.6296 0004193 328.6001  31.4893 14.72426293 28524, OPS 5712 (P/L 160)         , YES
 2866, 02866 1967-066   1967-066E , P        , LES 5                       , LES 5                       , 1967 Jul  1, S02868      , 1967 Jul  1 1923   , Earth  , -                  , O      -      , SAMSO       , US    , MITLL       , LES              , -           , 102      , 102       , 102      , 1.7   , 1.2    , 1.7    , Cyl                      , 1967 Sep  3, 33171  , 33639 , 6.92  , MEO    -           , ACTIVE, LES-5                   , 1967-066E , 2025-10-03T12:49:59.210976,  1.0942524 , 0.00535635  ,      2.0309,       105.1712,          195.7252,      91.2776,            0.0, U                  ,       2866.0,          999.0,      12822.0, 0.0           , -5.5e-07       , 0.0             , 2025-10-04 23:19:22, planet4589.org + Celestrak, 1 02866U 67066E   25276.53471309 -.00000055  00000-0  00000-0 0  9992, 2 02866   2.0309 105.1712 0053564 195.7252  91.2776  1.09425240128223, LES 5                      , YES
 2872, 02872 1967-053   1967-053F , P        , Calsphere III               , NRL PL159                   , 1967 May 31, S02825      , 1967 May 31 1026?  , Earth  , -                  , O      -      , NRL         , US    , NRL         , """NRL 14""""?""", -           , 3        , 3         , 3        , 0.4   , 0.4    , 0.4    , Sphere                   , 1967 Jul  1, 914    , 925   , 69.98 , LEO/I  -           , ACTIVE, SURCAL 159              , 1967-053F , 2025-10-03T12:16:35.697792, 13.99510777, 0.00037824  ,     69.9744,       193.5022,           87.6877,     272.4664,            0.0, U                  ,       2872.0,          999.0,      97429.0, 0.0002299902  , 2.82e-06       , 0.0             , 2025-10-04 23:19:22, planet4589.org + Celestrak, 1 02872U 67053F   25277.51213252  .00000243  00000-0  20338-3 0  9992, 2 02872  69.9744 191.3482 0003780  85.4134 274.7405 13.99511268974432, SURCAL 159                 , YES
 2874, 02874 1967-053   1967-053H , P        , NRL PL153                   , POPPY 5 Charlie             , 1967 May 31, S02825      , 1967 May 31 1026?  , Earth  , -                  , O      -      , NRO/NRL     , US    , NRL         , NRL MULTI        , -           , 77       , 77        , 77       , 0.8   , 0.7    , 18.0  ?, Ell + Ant                , 1967 Jul 12, 913    , 927   , 69.98 , LEO/I  -   NRO Miss, ACTIVE, OPS 5712 (P/L 153)      , 1967-053H , 2025-10-03T11:18:38.177280, 13.96771834, 0.00072979  ,     69.9736,       305.536 ,          193.1425,     166.9492,            0.0, U                  ,       2874.0,          999.0,      97093.0, 0.00013658054 , 1.37e-06       , 0.0             , 2025-10-04 23:19:22, planet4589.org + Celestrak, 1 02874U 67053H   25277.47384545  .00000118  00000-0  12291-3 0  9993, 2 02874  69.9734 303.3871 0007233 191.9755 168.1180 13.96772083971073, OPS 5712 (P/L 153)         , YES
